#dP2025  1 31  6  0  0.00000000      96 __u+U IGS20 EXT  IAC
## 2351 453600.00000000   900.00000000 60706 0.2500000000000
+   53   G01G02G03G04G05G06G07G08G09G10G11G12G13G14G15G16G17
+        G18G19G20G21G22G23G24G25G26G27G28G29G30G31G32R01R02
+        R03R04R05R06R07R08R09R11R12R14R15R16R17R18R19R20R21
+        R22R24  0  0  0  0  0  0  0  0  0  0  0  0  0  0  0
+          0  0  0  0  0  0  0  0  0  0  0  0  0  0  0  0  0
++         7  9  7  7  6 14  7  7  8  7  6  8  7  7  8  7  7
++         8  7  7  9  9  7  8  7  8  7  8  8  7  8  8  9  7
++         8  8  9  8  7 10  7  7  8  7  8  7  9  8  8  8  7
++         8  9  0  0  0  0  0  0  0  0  0  0  0  0  0  0  0
++         0  0  0  0  0  0  0  0  0  0  0  0  0  0  0  0  0
%c M  cc GPS ccc cccc cccc cccc cccc ccccc ccccc ccccc ccccc
%c cc cc ccc ccc cccc cccc cccc cccc ccccc ccccc ccccc ccccc
%f  0.0000000  0.000000000  0.00000000000  0.000000000000000
%f  0.0000000  0.000000000  0.00000000000  0.000000000000000
%i    0    0    0    0      0      0      0      0         0
%i    0    0    0    0      0      0      0      0         0
/* IAC                                ULTRA-RAPID PREDICTION
/* S/V CLOCKS ARE ALIGNED TO GNSS TIME                      
/* G:C1WC2W R:C1PC2P E:C1XC5X C:C2IC6I J:C1CC2S             
/* PCV:IGS20_2350 OL/AL:FES2004  NONE     YN ORB:CoN CLK:CoN
*  2025 01 31  9 30  0.00000000
PG01 -15056.956643   2340.780077  21760.478847     89.389177
PG02 -15825.587619    149.315465  21840.305999   -254.585218
PG03 -21715.863103  10197.472512  11101.093112    655.855660
PG04 -23478.668973   1129.785160 -12494.411204    520.221106
PG05  16943.429139   2465.247751 -20497.366869   -200.606584
PG06   5814.233337  25842.342067   -281.402994   -156.074992
PG07  -8477.269574  17608.742072 -17236.687083    -13.425905
PG08 -26171.893770  -5571.063441   1591.584885    471.572336
PG09 -16694.057551   9004.451266 -18711.802698    549.636761
PG10   5077.190778 -19949.967597  16826.329895   -299.405979
PG11  11947.829775  20818.692851 -11391.455467   -749.702217
PG12  22204.439298  -6894.324717  12511.393762   -567.572867
PG13  22141.607321  14098.572886  -5069.697017    695.116226
PG14  -8555.726189  21041.390264  13612.070330    590.071237
PG15  26450.769005   2359.100395   1540.713695    258.008657
PG16 -13106.071111  -9003.125077 -21688.985128    -64.490781
PG17  -1588.838451  15535.311446  21867.302442    448.610717
PG18   7161.591812 -19492.133425 -16395.214947   -655.553127
PG19  10003.123263  17340.838117  17534.702451    592.602217
PG20   8484.613427  13588.290658 -21115.502846    366.655762
PG21 -17090.341643  -8163.037076  19408.169027    101.836315
PG22  -2167.818051  18788.450717  19149.896843    -94.944121
PG23  16398.993317 -20299.035650   4269.971640    414.505286
PG24  16595.012919   2234.505412  20224.797512   -457.796233
PG25  19713.636416 -17434.539800   1917.498557    495.843417
PG26  -4980.429923 -16865.259701 -19991.796013    -70.857818
PG27 -21663.068514 -12988.359950  -9218.605509    -32.264734
PG28  -5736.797883 -25876.455857   1703.339338   -548.699579
PG29  17375.874883  -7222.792666 -18841.047096   -542.143675
PG30   -384.995082  24986.416196  -8434.170117   -226.922163
PG31 -10288.823537 -23217.260333  -7363.740999   -216.627662
PG32  -5150.777246 -16347.951850  20578.134750   -531.171030
PR01  17774.791588  -9122.191670  15871.311827    113.107355
PR02    626.021216 -10769.028756  23162.280620    -37.913259
PR03 -17696.959554  -6931.022133  17098.303631    115.976274
PR04 -25438.924001    296.293440   2015.948952    275.044458
PR05 -19856.802781   7427.102367 -14188.942874    144.633475
PR06  25246.754797     93.678485  -3688.751115   -131.250403
PR07  17869.026502   6805.447714 -16808.075809     99.895568
PR08  25424.610216   -746.770046  -1567.137971     -6.269563
PR09  -5231.412824  23006.527386   9602.401479    235.247426
PR11  12902.457204  -2788.760724  21835.101527     -5.100777
PR12  14084.641970 -19595.181635   8262.271665     50.238309
PR14  -5324.352158 -12898.246916 -21353.021188     27.671159
PR15 -13576.441703   4530.725970 -21101.383014     71.655901
PR16 -14005.611205  19571.533211  -8400.310512     32.912834
PR17 -15470.367691 -19685.964317   4793.415946    162.177986
PR18 -15325.319545  -8398.176029  18624.013844    184.667531
PR19  -8937.106845   5385.684852  23279.879904   -307.474637
PR20   5314.090673  20980.219474  13475.775152   -125.197841
PR21  14899.170414  20433.437022  -3421.756241   -172.764216
PR22  15083.590516   7316.608178 -19190.682634    -58.522369
PR24  -6494.118636 -21012.868337 -12891.990243    -90.460339
*  2025 01 31  9 45  0.00000000
PG01 -15500.381658    -97.720790  21574.850981     89.413127
PG02 -16603.651078  -2075.306845  21174.754570   -254.576806
PG03 -20811.703197   9074.867440  13519.365613    655.861513
PG04 -24653.922123    571.513522 -10045.048332    520.226194
PG05  15410.935097   4255.527025 -21395.393631   -200.607538
PG06   5606.162125  25764.001678   2633.833319   -156.098146
PG07  -9228.269319  15556.903225 -18753.696182    -13.426122
PG08 -26152.168431  -5824.691724  -1214.543663    471.578735
PG09 -18636.561635   8400.323020 -17086.229413    549.649598
PG10   6431.969411 -21106.965104  14770.317223   -299.419979
PG11  11995.746861  21998.086590  -8856.081396   -749.700674
PG12  21136.297117  -5679.196201  14728.266262   -567.574817
PG13  21420.455871  13996.382309  -7810.809907    695.117263
PG14  -9766.845821  21847.019409  11304.446618    590.077435
PG15  26491.239275   2674.162256  -1261.481342    258.012672
PG16 -11264.672230 -10571.331614 -21979.202512    -64.482444
PG17  -3904.544859  14800.632239  22107.619260    448.594259
PG18   7788.367304 -17599.613834 -18171.512110   -655.551489
PG19   7995.086836  16701.536477  19066.132034    592.606170
PG20   7075.130176  15516.099988 -20304.962510    366.655476
PG21 -17739.531786 -10091.625251  17928.728898    101.836727
PG22  -3792.675268  20000.658729  17601.579272    -94.945686
PG23  16770.391747 -20388.250136   1381.809005    414.511881
PG24  17340.929535   4468.568991  19263.493304   -457.792198
PG25  19646.154830 -16913.438941   4729.758625    495.842797
PG26  -3448.361533 -18460.370608 -18826.748728    -70.872366
PG27 -20508.008277 -12894.643247 -11700.197003    -32.264261
PG28  -5392.525262 -25607.112245   4531.467765   -548.707689
PG29  19270.615832  -6432.948584 -17221.364707   -542.140532
PG30   -989.681780  23969.683961 -10944.237253   -226.914436
PG31 -10170.516684 -23930.916728  -4611.612287   -216.626865
PG32  -2859.908697 -15828.012691  21405.249486   -531.164288
PR01  19551.236897  -9460.692548  13390.474760    113.108535
PR02   3440.296599 -11017.261681  22789.043086    -37.912873
PR03 -15474.751181  -7027.801077  19097.989586    115.976940
PR04 -24984.087032    444.304395   5204.871866    275.046058
PR05 -21428.277218   7705.946770 -11505.099566    144.634002
PR06  24581.645632     -8.585159  -6825.301023   -131.250052
PR07  15656.436834   6904.523264 -18849.330308     99.896256
PR08  25011.824351   -874.041862  -4761.371144     -6.269460
PR09  -5543.032149  23960.455821   6621.960697    235.249371
PR11  11749.754789   -299.486836  22645.477925     -5.103562
PR12  13483.012150 -18554.152858  11165.984844     50.238694
PR14  -4340.845780 -15251.194159 -19982.631987     27.671165
PR15 -12435.613332   2115.006627 -22158.414612     71.655625
PR16 -13382.721318  18516.738378 -11306.799578     32.913155
PR17 -15845.248901 -19903.535947   1591.756001    162.180844
PR18 -16654.646300 -10112.177744  16513.470244    184.669237
PR19 -10483.485553   2976.106148  23066.698130   -307.475820
PR20   4482.337188  19352.640676  15986.141325   -125.197784
PR21  15189.739631  20505.661212   -197.470038   -172.767033
PR22  16386.242695   9158.133994 -17234.241805    -58.523943
PR24  -5580.542536 -19514.338026 -15423.561955    -90.461831
EOF
